{
  "type": "FeatureCollection",
  "features": [
    {
      "type": "Feature",
      "properties": {
        "norad_id": 34420,
        "name": "COSMOS 2251 DEB",
        "group": "cosmos-2251-debris",
        "lat": -7.900624808479586,
        "lon": -88.58058621611599,
        "alt_km": 599.7396564891869,
        "timestamp": "2025-12-20T09:36:02.043402+00:00",
        "meta_object_name": "COSMOS 2251 DEB",
        "meta_object_id": "1993-036RM",
        "meta_epoch": "2025-12-20T01:21:34.490016",
        "meta_mean_motion": 14.68317509,
        "meta_eccentricity": 0.0106319,
        "meta_inclination": 74.0334,
        "meta_ra_of_asc_node": 89.8063,
        "meta_arg_of_pericenter": 209.2195,
        "meta_mean_anomaly": 324.9973,
        "meta_ephemeris_type": 0,
        "meta_classification_type": "U",
        "meta_norad_cat_id": 34420,
        "meta_element_set_no": 999,
        "meta_rev_at_epoch": 89877,
        "meta_bstar": 0.00016153,
        "meta_mean_motion_dot": 9.8e-06,
        "meta_mean_motion_ddot": 0,
        "tle_line1": "1 34420U 93036RM  25354.05664919  .00000980  00000+0  16153-3 0  9998",
        "tle_line2": "2 34420  74.0334  89.8063 0106319 209.2195 324.9973 14.68317509898778"
      },
      "geometry": {
        "type": "Point",
        "coordinates": [
          -88.58058621611599,
          -7.900624808479586
        ]
      }
    },
    {
      "type": "Feature",
      "properties": {
        "norad_id": 34425,
        "name": "COSMOS 2251 DEB",
        "group": "cosmos-2251-debris",
        "lat": 67.49067512452072,
        "lon": 176.0832955575452,
        "alt_km": 670.1548371101335,
        "timestamp": "2025-12-20T09:36:02.043412+00:00",
        "meta_object_name": "COSMOS 2251 DEB",
        "meta_object_id": "1993-036RS",
        "meta_epoch": "2025-12-20T04:11:25.846944",
        "meta_mean_motion": 14.62165493,
        "meta_eccentricity": 0.0024394,
        "meta_inclination": 74.0194,
        "meta_ra_of_asc_node": 40.2657,
        "meta_arg_of_pericenter": 164.7321,
        "meta_mean_anomaly": 195.4588,
        "meta_ephemeris_type": 0,
        "meta_classification_type": "U",
        "meta_norad_cat_id": 34425,
        "meta_element_set_no": 999,
        "meta_rev_at_epoch": 88849,
        "meta_bstar": 0.00033534,
        "meta_mean_motion_dot": 1.664e-05,
        "meta_mean_motion_ddot": 0,
        "tle_line1": "1 34425U 93036RS  25354.17460471  .00001664  00000+0  33534-3 0  9995",
        "tle_line2": "2 34425  74.0194  40.2657 0024394 164.7321 195.4588 14.62165493888493"
      },
      "geometry": {
        "type": "Point",
        "coordinates": [
          176.0832955575452,
          67.49067512452072
        ]
      }
    },
    {
      "type": "Feature",
      "properties": {
        "norad_id": 34429,
        "name": "COSMOS 2251 DEB",
        "group": "cosmos-2251-debris",
        "lat": -52.0664641698216,
        "lon": -7.0374965168521095,
        "alt_km": 442.1360584836166,
        "timestamp": "2025-12-20T09:36:02.043422+00:00",
        "meta_object_name": "COSMOS 2251 DEB",
        "meta_object_id": "1993-036RW",
        "meta_epoch": "2025-12-19T12:37:59.714112",
        "meta_mean_motion": 15.44301435,
        "meta_eccentricity": 0.0010491,
        "meta_inclination": 73.9675,
        "meta_ra_of_asc_node": 153.2196,
        "meta_arg_of_pericenter": 352.9418,
        "meta_mean_anomaly": 66.8806,
        "meta_ephemeris_type": 0,
        "meta_classification_type": "U",
        "meta_norad_cat_id": 34429,
        "meta_element_set_no": 999,
        "meta_rev_at_epoch": 89553,
        "meta_bstar": 0.0041473,
        "meta_mean_motion_dot": 0.00196298,
        "meta_mean_motion_ddot": 0,
        "tle_line1": "1 34429U 93036RW  25353.52638558  .00196298  00000+0  41473-2 0  9998",
        "tle_line2": "2 34429  73.9675 153.2196 0010491 352.9418  66.8806 15.44301435895539"
      },
      "geometry": {
        "type": "Point",
        "coordinates": [
          -7.0374965168521095,
          -52.0664641698216
        ]
      }
    },
    {
      "type": "Feature",
      "properties": {
        "norad_id": 34430,
        "name": "COSMOS 2251 DEB",
        "group": "cosmos-2251-debris",
        "lat": -12.091497913226327,
        "lon": -74.28332421021145,
        "alt_km": 720.9626973396698,
        "timestamp": "2025-12-20T09:36:02.043432+00:00",
        "meta_object_name": "COSMOS 2251 DEB",
        "meta_object_id": "1993-036RX",
        "meta_epoch": "2025-12-19T20:18:58.649760",
        "meta_mean_motion": 14.3965244,
        "meta_eccentricity": 0.00606806,
        "meta_inclination": 74.0517,
        "meta_ra_of_asc_node": 290.2496,
        "meta_arg_of_pericenter": 358.2136,
        "meta_mean_anomaly": 1.8792,
        "meta_ephemeris_type": 0,
        "meta_classification_type": "U",
        "meta_norad_cat_id": 34430,
        "meta_element_set_no": 999,
        "meta_rev_at_epoch": 88057,
        "meta_bstar": 0.0003345008,
        "meta_mean_motion_dot": 1.042e-05,
        "meta_mean_motion_ddot": 0,
        "tle_line1": "1 34430U 93036RX  25353.84651215  .00001042  00000+0  33450-3 0  9999",
        "tle_line2": "2 34430  74.0517 290.2496 0060680 358.2136   1.8792 14.39652440880573"
      },
      "geometry": {
        "type": "Point",
        "coordinates": [
          -74.28332421021145,
          -12.091497913226327
        ]
      }
    },
    {
      "type": "Feature",
      "properties": {
        "norad_id": 34431,
        "name": "COSMOS 2251 DEB",
        "group": "cosmos-2251-debris",
        "lat": -47.075375086197056,
        "lon": 143.45453324408717,
        "alt_km": 849.3970075681182,
        "timestamp": "2025-12-20T09:36:02.043442+00:00",
        "meta_object_name": "COSMOS 2251 DEB",
        "meta_object_id": "1993-036RY",
        "meta_epoch": "2025-12-19T22:04:20.477280",
        "meta_mean_motion": 14.28796645,
        "meta_eccentricity": 0.0067992,
        "meta_inclination": 74.0737,
        "meta_ra_of_asc_node": 162.2029,
        "meta_arg_of_pericenter": 145.9975,
        "meta_mean_anomaly": 214.556,
        "meta_ephemeris_type": 0,
        "meta_classification_type": "U",
        "meta_norad_cat_id": 34431,
        "meta_element_set_no": 999,
        "meta_rev_at_epoch": 87245,
        "meta_bstar": 0.00049183,
        "meta_mean_motion_dot": 1.245e-05,
        "meta_mean_motion_ddot": 0,
        "tle_line1": "1 34431U 93036RY  25353.91968145  .00001245  00000+0  49183-3 0  9996",
        "tle_line2": "2 34431  74.0737 162.2029 0067992 145.9975 214.5560 14.28796645872451"
      },
      "geometry": {
        "type": "Point",
        "coordinates": [
          143.45453324408717,
          -47.075375086197056
        ]
      }
    },
    {
      "type": "Feature",
      "properties": {
        "norad_id": 34432,
        "name": "COSMOS 2251 DEB",
        "group": "cosmos-2251-debris",
        "lat": -33.64966966638304,
        "lon": 77.69348735492403,
        "alt_km": 1008.2984246922506,
        "timestamp": "2025-12-20T09:36:02.043453+00:00",
        "meta_object_name": "COSMOS 2251 DEB",
        "meta_object_id": "1993-036RZ",
        "meta_epoch": "2025-12-19T06:32:24.354240",
        "meta_mean_motion": 14.02934229,
        "meta_eccentricity": 0.0181953,
        "meta_inclination": 73.8292,
        "meta_ra_of_asc_node": 90.8154,
        "meta_arg_of_pericenter": 172.489,
        "meta_mean_anomaly": 219.0361,
        "meta_ephemeris_type": 0,
        "meta_classification_type": "U",
        "meta_norad_cat_id": 34432,
        "meta_element_set_no": 999,
        "meta_rev_at_epoch": 85776,
        "meta_bstar": 0.00076949,
        "meta_mean_motion_dot": 1.356e-05,
        "meta_mean_motion_ddot": 0,
        "tle_line1": "1 34432U 93036RZ  25353.27250410  .00001356  00000+0  76949-3 0  9998",
        "tle_line2": "2 34432  73.8292  90.8154 0181953 172.4890 219.0361 14.02934229857765"
      },
      "geometry": {
        "type": "Point",
        "coordinates": [
          77.69348735492403,
          -33.64966966638304
        ]
      }
    },
    {
      "type": "Feature",
      "properties": {
        "norad_id": 34433,
        "name": "COSMOS 2251 DEB",
        "group": "cosmos-2251-debris",
        "lat": -71.91221718147025,
        "lon": 22.76432361226208,
        "alt_km": 750.4724754829958,
        "timestamp": "2025-12-20T09:36:02.043463+00:00",
        "meta_object_name": "COSMOS 2251 DEB",
        "meta_object_id": "1993-036SA",
        "meta_epoch": "2025-12-19T10:15:55.503936",
        "meta_mean_motion": 14.12879998,
        "meta_eccentricity": 0.0152655,
        "meta_inclination": 74.0099,
        "meta_ra_of_asc_node": 143.0939,
        "meta_arg_of_pericenter": 279.7612,
        "meta_mean_anomaly": 78.6318,
        "meta_ephemeris_type": 0,
        "meta_classification_type": "U",
        "meta_norad_cat_id": 34433,
        "meta_element_set_no": 999,
        "meta_rev_at_epoch": 86044,
        "meta_bstar": 0.00077538,
        "meta_mean_motion_dot": 1.585e-05,
        "meta_mean_motion_ddot": 0,
        "tle_line1": "1 34433U 93036SA  25353.42772574  .00001585  00000+0  77538-3 0  9995",
        "tle_line2": "2 34433  74.0099 143.0939 0152655 279.7612  78.6318 14.12879998860448"
      },
      "geometry": {
        "type": "Point",
        "coordinates": [
          22.76432361226208,
          -71.91221718147025
        ]
      }
    }
  ]
}